1 44742U 19074AF  22164.39044269  .00015743  00000-0  83041-3 0  9993
2 44742  52.9941 200.1037 0002677  31.2635 328.8516 15.15725983142868
1 44742U 19074AF  22164.78606845  .00016665  00000-0  87763-3 0  9999
2 44742  52.9940 198.2995 0002674  31.1015 329.0135 15.15739868142929
1 44742U 19074AF  22164.78606845  .00016665  00000-0  87763-3 0  9999
2 44742  52.9940 198.2995 0002674  31.1015 329.0135 15.15739868143098
1 44742U 19074AF  22165.37950101  .00015245  00000-0  80398-3 0  9992
2 44742  52.9934 195.5929 0002680  32.7681 327.3477 15.15757692143018
1 44742U 19074AF  22165.77511851  .00016401  00000-0  86327-3 0  9994
2 44742  52.9933 193.7886 0002687  34.0372 326.0792 15.15771756143077
1 44742U 19074AF  22166.10479695  .00017759  00000-0  93291-3 0  9996
2 44742  52.9931 192.2848 0002691  34.4432 325.6734 15.15784274143297
1 44742U 19074AF  22166.36853749  .00016726  00000-0  87951-3 0  9999
2 44742  52.9934 191.0823 0002680  35.4939 324.6231 15.15792686143164
1 44742U 19074AF  22166.76414439  .00022406  00000-0  11711-2 0  9994
2 44742  52.9932 189.2777 0002691  36.7337 323.3839 15.15814655143225
1 44742U 19074AF  22167.02787884  .00026321  00000-0  13715-2 0  9997
2 44742  52.9930 188.0749 0002684  37.6088 322.5092 15.15831928143262
1 44742U 19074AF  22170.32442816  .00022735  00000-0  11833-2 0  9991
2 44742  52.9929 173.0370 0002729  46.0369 314.0848 15.15954467143764
1 44742U 19074AF  22170.52221229  .00019258  00000-0  10051-2 0  9993
2 44742  52.9925 172.1352 0002785  46.3747 313.7476 15.15959694143798
1 44742U 19074AF  22171.37926486  .00016552  00000-0  86573-3 0  9991
2 44742  52.9926 168.2245 0002784  48.9697 311.1536 15.15988517143927
1 44742U 19074AF  22171.70889580  .00017866  00000-0  93268-3 0  9999
2 44742  52.9925 166.7203 0002817  49.3692 310.7545 15.16001710143972
1 44742U 19074AF  22171.70889580  .00017866  00000-0  93268-3 0  9999
2 44742  52.9925 166.7203 0002817  49.3692 310.7545 15.16001710144142
1 44742U 19074AF  22172.36814928  .00019009  00000-0  99041-3 0  9992
2 44742  52.9929 163.7125 0002901  50.5554 309.5694 15.16027943144070
1 44742U 19074AF  22172.69777156  .00018835  00000-0  98115-3 0  9996
2 44742  52.9925 162.2082 0002892  52.0789 308.0465 15.16040908144120
1 44742U 19074AF  22173.22516091  .00019794  00000-0  10295-2 0  9992
2 44742  52.9923 159.8016 0002911  53.3004 306.8255 15.16063944144378
1 44742U 19074AF  22173.35700711  .00019662  00000-0  10226-2 0  9998
2 44742  52.9924 159.2001 0002921  53.4732 306.6529 15.16069236144223
1 44742U 19074AF  22173.68662110  .00018967  00000-0  98680-3 0  9992
2 44742  52.9922 157.6963 0002978  53.7652 306.3615 15.16081064144277
1 44742U 19074AF  22174.41176166  .00017886  00000-0  93089-3 0  9992
2 44742  52.9923 154.3871 0003015  55.3895 304.7382 15.16108092144386
1 44742U 19074AF  22174.67544608  .00017414  00000-0  90654-3 0  9992
2 44742  52.9924 153.1837 0003027  55.9086 304.2193 15.16116968144428
1 44742U 19074AF  22175.33465018  .00016984  00000-0  88404-3 0  9994
2 44742  52.9926 150.1755 0003054  57.0738 303.0548 15.16140124144526
1 44742U 19074AF  22175.66424933  .00013981  00000-0  73068-3 0  9995
2 44742  52.9927 148.6713 0003097  57.6766 302.4526 15.16146802144570
1 44742U 19074AF  22175.66424933  .00013981  00000-0  73068-3 0  9995
2 44742  52.9927 148.6713 0003097  57.6766 302.4526 15.16146802144749
1 44742U 19074AF  22176.32344022  .00016441  00000-0  85559-3 0  9991
2 44742  52.9930 145.6628 0003115  59.1223 301.0075 15.16170378144672
1 44742U 19074AF  22177.18037039  .00024621  00000-0  12704-2 0  9993
2 44742  52.9936 141.7516 0003119  61.9672 298.1635 15.16213153144974
1 44742U 19074AF  22177.31220354  .00025524  00000-0  13160-2 0  9992
2 44742  52.9937 141.1498 0003116  62.5400 297.5909 15.16220514144821
1 44742U 19074AF  22178.16910809  .00020031  00000-0  10360-2 0  9994
2 44742  52.9942 137.2388 0003149  64.9141 295.2178 15.16253629144955
1 44742U 19074AF  22178.16910809  .00020031  00000-0  10360-2 0  9994
2 44742  52.9942 137.2388 0003149  64.9141 295.2178 15.16253629145125
1 44742U 19074AF  22179.28964951  .00012687  00000-0  66205-3 0  9993
2 44742  52.9949 132.1245 0003130  67.7931 292.3393 15.16285924145126
1 44742U 19074AF  22179.28964951  .00012687  00000-0  66205-3 0  9993
2 44742  52.9949 132.1245 0003130  67.7931 292.3393 15.16285924145294
1 44742U 19074AF  22180.54199409  .00010777  00000-0  56445-3 0  9995
2 44742  52.9953 126.4080 0003107  70.9447 289.1882 15.16315893145313
1 44742U 19074AF  22181.26702465  .00009268  00000-0  48753-3 0  9993
2 44742  52.9958 123.0986 0003090  72.7903 287.3428 15.16331395145427
1 44742U 19074AF  22181.86022614  .00008921  00000-0  46972-3 0  9996
2 44742  52.9958 120.3910 0003054  74.4291 285.7039 15.16343553145512
1 44742U 19074AF  22182.51933353  .00008712  00000-0  45892-3 0  9998
2 44742  52.9957 117.3826 0003033  76.5212 283.6118 15.16356422145611
1 44742U 19074AF  22182.84888534  .00008862  00000-0  46649-3 0  9991
2 44742  52.9955 115.8783 0003038  77.8725 282.2608 15.16362935145662
1 44742U 19074AF  22183.50798367  .00013678  00000-0  71051-3 0  9995
2 44742  52.9953 112.8697 0003009  80.0400 280.0932 15.16382092145768
1 44742U 19074AF  22184.49661398  .00011706  00000-0  61002-3 0  9992
2 44742  52.9948 108.3565 0003015  83.7054 276.4281 15.16409664145916
1 44742U 19074AF  22184.49661398  .00011706  00000-0  61002-3 0  9992
2 44742  52.9948 108.3565 0003015  83.7054 276.4281 15.16409664146085
1 44742U 19074AF  22185.48522705  .00014095  00000-0  73047-3 0  9996
2 44742  52.9943 103.8431 0003001  86.7390 273.3946 15.16438467146068
1 44742U 19074AF  22186.14429340  .00013295  00000-0  68968-3 0  9998
2 44742  52.9940 100.8341 0002976  87.6480 272.4853 15.16454588146331
1 44742U 19074AF  22186.47382396  .00010887  00000-0  56772-3 0  9997
2 44742  52.9938  99.3295 0002978  89.1916 270.9418 15.16460027146213
1 44742U 19074AF  22187.46240557  .00011731  00000-0  61001-3 0  9999
2 44742  52.9933  94.8154 0002978  91.3268 268.8066 15.16484122146360
1 44742U 19074AF  22187.46240557  .00011731  00000-0  61001-3 0  9999
2 44742  52.9933  94.8154 0002978  91.3268 268.8066 15.16484122146539
1 44742U 19074AF  22188.05554784  .00013093  00000-0  67860-3 0  9997
2 44742  52.9932  92.1068 0002999  92.7241 267.4095 15.16498665146457
1 44742U 19074AF  22188.71458783  .00013506  00000-0  69913-3 0  9992
2 44742  52.9931  89.0974 0003001  93.8620 266.2715 15.16515068146559
1 44742U 19074AF  22188.71458783  .00013506  00000-0  69913-3 0  9992
2 44742  52.9931  89.0974 0003001  93.8620 266.2715 15.16515068146728
1 44742U 19074AF  22189.43951705  .00019607  00000-0  10060-2 0  9990
2 44742  52.9934  85.7871 0002974  95.6829 264.4503 15.16549278146667
1 44742U 19074AF  22189.43951705  .00019607  00000-0  10060-2 0  9990
2 44742  52.9934  85.7871 0002974  95.6829 264.4503 15.16549278146836
1 44742U 19074AF  22190.42803020  .00014927  00000-0  76922-3 0  9997
2 44742  52.9938  81.2728 0002981  97.4196 262.7135 15.16591213146813
1 44742U 19074AF  22190.69162942  .00015465  00000-0  79608-3 0  9999
2 44742  52.9940  80.0692 0002939  97.1800 262.9527 15.16602542146854
1 44742U 19074AF  22190.95522756  .00016461  00000-0  84597-3 0  9991
2 44742  52.9942  78.8653 0002943  98.0246 262.1081 15.16612873146896
1 44742U 19074AF  22191.87780907  .00017975  00000-0  92129-3 0  9998
2 44742  52.9948  74.6521 0002931  99.3280 260.8044 15.16645516147030
1 44742U 19074AF  22191.94370714  .00017845  00000-0  91472-3 0  9993
2 44742  52.9949  74.3511 0002930  99.0252 261.1072 15.16647324147216
1 44742U 19074AF  22192.40499027  .00015839  00000-0  81357-3 0  9996
2 44742  52.9950  72.2444 0002885  99.3382 260.7937 15.16660198147114
1 44742U 19074AF  22192.86626905  .00018196  00000-0  93153-3 0  9999
2 44742  52.9953  70.1379 0002929 100.7224 259.4098 15.16678042147189
1 44742U 19074AF  22192.99806201  .00018702  00000-0  95680-3 0  9992
2 44742  52.9954  69.5360 0002923 101.0592 259.0729 15.16682892147206
1 44742U 19074AF  22192.99806201  .00018702  00000-0  95680-3 0  9992
2 44742  52.9954  69.5360 0002923 101.0592 259.0729 15.16682892147374
1 44742U 19074AF  22193.78880424  .00028693  00000-0  14555-2 0  9990
2 44742  52.9958  65.9245 0002882 102.3657 257.7658 15.16731852147322
1 44742U 19074AF  22193.78880424  .00028693  00000-0  14555-2 0  9990
2 44742  52.9958  65.9245 0002882 102.3657 257.7658 15.16731852147490
1 44742U 19074AF  22193.92059238  .00028479  00000-0  14445-2 0  9997
2 44742  52.9958  65.3227 0002869 102.6094 257.5219 15.16738729147342
1 44742U 19074AF  22194.84309276  .00023393  00000-0  11887-2 0  9996
2 44742  52.9961  61.1092 0002795 104.1660 255.9643 15.16782714147485
1 44742U 19074AF  22194.84309276  .00023393  00000-0  11887-2 0  9996
2 44742  52.9961  61.1092 0002795 104.1660 255.9643 15.16782714147654
1 44742U 19074AF  22195.04076820  .00024270  00000-0  12322-2 0  9995
2 44742  52.9962  60.2065 0002754 103.5591 256.5709 15.16792036147519
1 44742U 19074AF  22195.89734876  .00022576  00000-0  11464-2 0  9993
2 44742  52.9963  56.2931 0002707 105.8953 254.2338 15.16827322147646
1 44742U 19074AF  22196.02912841  .00023093  00000-0  11720-2 0  9999
2 44742  52.9963  55.6910 0002671 105.7374 254.3914 15.16833715147668
1 44742U 19074AF  22196.02912841  .00023093  00000-0  11720-2 0  9999
2 44742  52.9963  55.6910 0002671 105.7374 254.3914 15.16833715147837
1 44742U 19074AF  22196.88568037  .00024404  00000-0  12358-2 0  9992
2 44742  52.9966  51.7776 0002602 108.2099 251.9178 15.16880136147792
1 44742U 19074AF  22197.01745534  .00024933  00000-0  12619-2 0  9994
2 44742  52.9965  51.1753 0002557 108.1914 251.9358 15.16887565147810
1 44742U 19074AF  22197.01745534  .00024933  00000-0  12619-2 0  9994
2 44742  52.9965  51.1753 0002557 108.1914 251.9358 15.16887565147988
1 44742U 19074AF  22197.87397457  .00026844  00000-0  13550-2 0  9993
2 44742  52.9965  47.2618 0002468 111.6424 248.4832 15.16940567147946
